[{"OBJECT_NAME":"TIANMU-1 07","OBJECT_ID":"2023-101A","EPOCH":"2026-03-06T13:47:20.454720","MEAN_MOTION":15.29118809,"ECCENTRICITY":0.00046097,"INCLINATION":97.2728,"RA_OF_ASC_NODE":118.5929,"ARG_OF_PERICENTER":142.4105,"MEAN_ANOMALY":217.7458,"EPHEMERIS_TYPE":0,"CLASSIFICATION_TYPE":"U","NORAD_CAT_ID":57399,"ELEMENT_SET_NO":999,"REV_AT_EPOCH":14596,"BSTAR":0.00029794732,"MEAN_MOTION_DOT":8.352e-5,"MEAN_MOTION_DDOT":0},{"OBJECT_NAME":"STARLINK-32267","OBJECT_ID":"2024-138J","EPOCH":"2026-03-09T22:39:04.323456","MEAN_MOTION":15.30184186,"ECCENTRICITY":0.00010984,"INCLINATION":53.1598,"RA_OF_ASC_NODE":308.6237,"ARG_OF_PERICENTER":50.5505,"MEAN_ANOMALY":309.5593,"EPHEMERIS_TYPE":0,"CLASSIFICATION_TYPE":"U","NORAD_CAT_ID":60363,"ELEMENT_SET_NO":999,"REV_AT_EPOCH":9066,"BSTAR":3.9905833e-5,"MEAN_MOTION_DOT":8.22e-6,"MEAN_MOTION_DDOT":0}]
